[{"OBJECT_NAME":"INMARSAT 4-F2 (SOUTHPAN/PRN 122)","OBJECT_ID":"2005-044A","EPOCH":"2026-04-04T06:00:38.398752","MEAN_MOTION":1.00271646,"ECCENTRICITY":0.00033589,"INCLINATION":4.999,"RA_OF_ASC_NODE":43.7841,"ARG_OF_PERICENTER":350.2275,"MEAN_ANOMALY":32.208,"EPHEMERIS_TYPE":0,"CLASSIFICATION_TYPE":"U","NORAD_CAT_ID":28899,"ELEMENT_SET_NO":999,"REV_AT_EPOCH":7478,"BSTAR":0,"MEAN_MOTION_DOT":-2.59e-6,"MEAN_MOTION_DDOT":0},{"OBJECT_NAME":"GSAT-8 (GAGAN/PRN 127)","OBJECT_ID":"2011-022A","EPOCH":"2026-04-04T04:29:27.155904","MEAN_MOTION":1.00271641,"ECCENTRICITY":0.00057279,"INCLINATION":1.9401,"RA_OF_ASC_NODE":82.7126,"ARG_OF_PERICENTER":224.321,"MEAN_ANOMALY":7.8885,"EPHEMERIS_TYPE":0,"CLASSIFICATION_TYPE":"U","NORAD_CAT_ID":37605,"ELEMENT_SET_NO":999,"REV_AT_EPOCH":5247,"BSTAR":0,"MEAN_MOTION_DOT":8.5e-7,"MEAN_MOTION_DDOT":0},{"OBJECT_NAME":"LUCH 5A (SDCM/PRN 140)","OBJECT_ID":"2011-074B","EPOCH":"2026-04-04T05:31:38.645760","MEAN_MOTION":1.00271206,"ECCENTRICITY":0.00031768,"INCLINATION":8.567,"RA_OF_ASC_NODE":74.881,"ARG_OF_PERICENTER":284.46,"MEAN_ANOMALY":83.044,"EPHEMERIS_TYPE":0,"CLASSIFICATION_TYPE":"U","NORAD_CAT_ID":37951,"ELEMENT_SET_NO":999,"REV_AT_EPOCH":5231,"BSTAR":0,"MEAN_MOTION_DOT":-4.7e-7,"MEAN_MOTION_DDOT":0},{"OBJECT_NAME":"SES-5 (EGNOS/PRN 136)","OBJECT_ID":"2012-036A","EPOCH":"2026-04-04T04:15:13.519584","MEAN_MOTION":1.00270782,"ECCENTRICITY":0.00019816,"INCLINATION":0.0597,"RA_OF_ASC_NODE":304.3178,"ARG_OF_PERICENTER":71.5629,"MEAN_ANOMALY":245.3841,"EPHEMERIS_TYPE":0,"CLASSIFICATION_TYPE":"U","NORAD_CAT_ID":38652,"ELEMENT_SET_NO":999,"REV_AT_EPOCH":4371,"BSTAR":0,"MEAN_MOTION_DOT":3.3e-7,"MEAN_MOTION_DDOT":0},{"OBJECT_NAME":"GSAT-10 (GAGAN/PRN 128)","OBJECT_ID":"2012-051B","EPOCH":"2026-04-04T05:25:38.591904","MEAN_MOTION":1.00273174,"ECCENTRICITY":0.00061753,"INCLINATION":0.0847,"RA_OF_ASC_NODE":265.6871,"ARG_OF_PERICENTER":171.5252,"MEAN_ANOMALY":279.7188,"EPHEMERIS_TYPE":0,"CLASSIFICATION_TYPE":"U","NORAD_CAT_ID":38779,"ELEMENT_SET_NO":999,"REV_AT_EPOCH":4935,"BSTAR":0,"MEAN_MOTION_DOT":-1.65e-6,"MEAN_MOTION_DDOT":0},{"OBJECT_NAME":"LUCH 5B (SDCM/PRN 125)","OBJECT_ID":"2012-061A","EPOCH":"2026-04-04T04:09:06.606432","MEAN_MOTION":1.0027362,"ECCENTRICITY":0.00024512,"INCLINATION":10.3265,"RA_OF_ASC_NODE":50.6027,"ARG_OF_PERICENTER":229.3603,"MEAN_ANOMALY":318.4857,"EPHEMERIS_TYPE":0,"CLASSIFICATION_TYPE":"U","NORAD_CAT_ID":38977,"ELEMENT_SET_NO":999,"REV_AT_EPOCH":4886,"BSTAR":0,"MEAN_MOTION_DOT":-1.35e-6,"MEAN_MOTION_DDOT":0},{"OBJECT_NAME":"ASTRA 5B (EGNOS/PRN 123)","OBJECT_ID":"2014-011B","EPOCH":"2026-04-04T04:39:38.850624","MEAN_MOTION":1.00272806,"ECCENTRICITY":0.00033994,"INCLINATION":0.0751,"RA_OF_ASC_NODE":305.5388,"ARG_OF_PERICENTER":48.5875,"MEAN_ANOMALY":291.7774,"EPHEMERIS_TYPE":0,"CLASSIFICATION_TYPE":"U","NORAD_CAT_ID":39617,"ELEMENT_SET_NO":999,"REV_AT_EPOCH":4392,"BSTAR":0,"MEAN_MOTION_DOT":1.36e-6,"MEAN_MOTION_DDOT":0},{"OBJECT_NAME":"LUCH 5V (SDCM/PRN 141)","OBJECT_ID":"2014-023A","EPOCH":"2026-04-03T23:42:21.564576","MEAN_MOTION":1.00270652,"ECCENTRICITY":0.00028576,"INCLINATION":4.9517,"RA_OF_ASC_NODE":70.4707,"ARG_OF_PERICENTER":318.1693,"MEAN_ANOMALY":253.996,"EPHEMERIS_TYPE":0,"CLASSIFICATION_TYPE":"U","NORAD_CAT_ID":39727,"ELEMENT_SET_NO":999,"REV_AT_EPOCH":4361,"BSTAR":0,"MEAN_MOTION_DOT":-2.67e-6,"MEAN_MOTION_DDOT":0},{"OBJECT_NAME":"GSAT-15 (GAGAN/PRN 139)","OBJECT_ID":"2015-065A","EPOCH":"2026-04-04T02:48:38.679840","MEAN_MOTION":1.0027026,"ECCENTRICITY":0.00025681,"INCLINATION":0.0197,"RA_OF_ASC_NODE":230.1949,"ARG_OF_PERICENTER":178.7148,"MEAN_ANOMALY":279.1669,"EPHEMERIS_TYPE":0,"CLASSIFICATION_TYPE":"U","NORAD_CAT_ID":41028,"ELEMENT_SET_NO":999,"REV_AT_EPOCH":3805,"BSTAR":0,"MEAN_MOTION_DOT":-2.58e-6,"MEAN_MOTION_DDOT":0},{"OBJECT_NAME":"EUTELSAT 117 WEST B (WAAS/PRN 131)","OBJECT_ID":"2016-038B","EPOCH":"2026-04-04T01:57:41.711328","MEAN_MOTION":1.00271113,"ECCENTRICITY":3.619e-5,"INCLINATION":0.0176,"RA_OF_ASC_NODE":54.8867,"ARG_OF_PERICENTER":214.5742,"MEAN_ANOMALY":195.3788,"EPHEMERIS_TYPE":0,"CLASSIFICATION_TYPE":"U","NORAD_CAT_ID":41589,"ELEMENT_SET_NO":999,"REV_AT_EPOCH":3592,"BSTAR":0,"MEAN_MOTION_DOT":-1.3e-7,"MEAN_MOTION_DDOT":0},{"OBJECT_NAME":"SES-15 (WAAS/PRN 133)","OBJECT_ID":"2017-026A","EPOCH":"2026-04-03T15:21:38.184192","MEAN_MOTION":1.00269959,"ECCENTRICITY":7.58e-5,"INCLINATION":0.034,"RA_OF_ASC_NODE":327.2328,"ARG_OF_PERICENTER":49.7417,"MEAN_ANOMALY":276.2283,"EPHEMERIS_TYPE":0,"CLASSIFICATION_TYPE":"U","NORAD_CAT_ID":42709,"ELEMENT_SET_NO":999,"REV_AT_EPOCH":668,"BSTAR":0,"MEAN_MOTION_DOT":5.8e-7,"MEAN_MOTION_DDOT":0},{"OBJECT_NAME":"QZS-2 (QZSS/PRN 194)","OBJECT_ID":"2017-028A","EPOCH":"2026-04-03T06:47:38.773824","MEAN_MOTION":1.00254002,"ECCENTRICITY":0.07422959,"INCLINATION":39.5466,"RA_OF_ASC_NODE":244.2448,"ARG_OF_PERICENTER":270.5974,"MEAN_ANOMALY":278.6523,"EPHEMERIS_TYPE":0,"CLASSIFICATION_TYPE":"U","NORAD_CAT_ID":42738,"ELEMENT_SET_NO":999,"REV_AT_EPOCH":687,"BSTAR":0,"MEAN_MOTION_DOT":-2.18e-6,"MEAN_MOTION_DDOT":0},{"OBJECT_NAME":"QZS-3 (QZSS/PRN 199)","OBJECT_ID":"2017-048A","EPOCH":"2026-04-04T06:08:38.620320","MEAN_MOTION":1.00271642,"ECCENTRICITY":0.00021161,"INCLINATION":0.0631,"RA_OF_ASC_NODE":146.298,"ARG_OF_PERICENTER":230.5952,"MEAN_ANOMALY":34.8794,"EPHEMERIS_TYPE":0,"CLASSIFICATION_TYPE":"U","NORAD_CAT_ID":42917,"ELEMENT_SET_NO":999,"REV_AT_EPOCH":3151,"BSTAR":0,"MEAN_MOTION_DOT":-3.48e-6,"MEAN_MOTION_DDOT":0},{"OBJECT_NAME":"QZS-4 (QZSS/PRN 195)","OBJECT_ID":"2017-062A","EPOCH":"2026-04-03T13:27:18.634176","MEAN_MOTION":1.00273009,"ECCENTRICITY":0.0747488,"INCLINATION":40.1534,"RA_OF_ASC_NODE":344.4369,"ARG_OF_PERICENTER":270.4779,"MEAN_ANOMALY":279.3726,"EPHEMERIS_TYPE":0,"CLASSIFICATION_TYPE":"U","NORAD_CAT_ID":42965,"ELEMENT_SET_NO":999,"REV_AT_EPOCH":3105,"BSTAR":0,"MEAN_MOTION_DOT":-3.37e-6,"MEAN_MOTION_DDOT":0},{"OBJECT_NAME":"BEIDOU-3 G1 (PRN 130)","OBJECT_ID":"2018-085A","EPOCH":"2026-04-01T20:42:38.441952","MEAN_MOTION":1.00268589,"ECCENTRICITY":0.00020589,"INCLINATION":2.882,"RA_OF_ASC_NODE":99.4564,"ARG_OF_PERICENTER":12.9832,"MEAN_ANOMALY":168.3736,"EPHEMERIS_TYPE":0,"CLASSIFICATION_TYPE":"U","NORAD_CAT_ID":43683,"ELEMENT_SET_NO":999,"REV_AT_EPOCH":2729,"BSTAR":0,"MEAN_MOTION_DOT":-2.84e-6,"MEAN_MOTION_DDOT":0},{"OBJECT_NAME":"EUTELSAT 5 WEST B (EGNOS/PRN 121)","OBJECT_ID":"2019-067A","EPOCH":"2026-04-04T04:12:21.295008","MEAN_MOTION":1.00272696,"ECCENTRICITY":0.000344,"INCLINATION":0.0659,"RA_OF_ASC_NODE":10.2087,"ARG_OF_PERICENTER":12.9125,"MEAN_ANOMALY":227.4504,"EPHEMERIS_TYPE":0,"CLASSIFICATION_TYPE":"U","NORAD_CAT_ID":44624,"ELEMENT_SET_NO":999,"REV_AT_EPOCH":2369,"BSTAR":0,"MEAN_MOTION_DOT":-4.3e-7,"MEAN_MOTION_DDOT":0},{"OBJECT_NAME":"BEIDOU-3 G2 (PRN 144)","OBJECT_ID":"2020-017A","EPOCH":"2026-04-04T02:53:58.812576","MEAN_MOTION":1.00272125,"ECCENTRICITY":0.00028175,"INCLINATION":2.7162,"RA_OF_ASC_NODE":46.1345,"ARG_OF_PERICENTER":334.6591,"MEAN_ANOMALY":295.1846,"EPHEMERIS_TYPE":0,"CLASSIFICATION_TYPE":"U","NORAD_CAT_ID":45344,"ELEMENT_SET_NO":999,"REV_AT_EPOCH":2251,"BSTAR":0,"MEAN_MOTION_DOT":-1.4e-6,"MEAN_MOTION_DDOT":0}]
